[{"OBJECT_NAME":"STARLINK-5806","OBJECT_ID":"2023-042X","EPOCH":"2026-03-09T08:27:08.919648","MEAN_MOTION":15.02530884,"ECCENTRICITY":0.00010224,"INCLINATION":43.0048,"RA_OF_ASC_NODE":57.5951,"ARG_OF_PERICENTER":261.3003,"MEAN_ANOMALY":98.7723,"EPHEMERIS_TYPE":0,"CLASSIFICATION_TYPE":"U","NORAD_CAT_ID":56007,"ELEMENT_SET_NO":999,"REV_AT_EPOCH":16286,"BSTAR":-1.168786e-5,"MEAN_MOTION_DOT":-3.61e-6,"MEAN_MOTION_DDOT":0},{"OBJECT_NAME":"AISAT","OBJECT_ID":"2014-034B","EPOCH":"2026-03-09T16:29:04.722144","MEAN_MOTION":15.06703825,"ECCENTRICITY":0.00089151,"INCLINATION":98.2441,"RA_OF_ASC_NODE":333.9816,"ARG_OF_PERICENTER":189.0234,"MEAN_ANOMALY":171.0832,"EPHEMERIS_TYPE":0,"CLASSIFICATION_TYPE":"U","NORAD_CAT_ID":40054,"ELEMENT_SET_NO":999,"REV_AT_EPOCH":63221,"BSTAR":0.00094770343,"MEAN_MOTION_DOT":0.00014038,"MEAN_MOTION_DDOT":0}]
